[{"OBJECT_NAME":"HORS 2","OBJECT_ID":"2023-091AG","EPOCH":"2026-03-09T22:11:34.810944","MEAN_MOTION":15.2928008,"ECCENTRICITY":0.00098173,"INCLINATION":97.5195,"RA_OF_ASC_NODE":134.7443,"ARG_OF_PERICENTER":79.3164,"MEAN_ANOMALY":280.9181,"EPHEMERIS_TYPE":0,"CLASSIFICATION_TYPE":"U","NORAD_CAT_ID":57196,"ELEMENT_SET_NO":999,"REV_AT_EPOCH":14934,"BSTAR":0.00059338338,"MEAN_MOTION_DOT":0.00016821,"MEAN_MOTION_DDOT":0},{"OBJECT_NAME":"STARLINK-36528","OBJECT_ID":"2026-008P","EPOCH":"2026-03-09T09:47:55.238208","MEAN_MOTION":15.27610439,"ECCENTRICITY":0.00039298,"INCLINATION":43.0003,"RA_OF_ASC_NODE":206.4144,"ARG_OF_PERICENTER":146.2409,"MEAN_ANOMALY":213.8694,"EPHEMERIS_TYPE":0,"CLASSIFICATION_TYPE":"U","NORAD_CAT_ID":67458,"ELEMENT_SET_NO":999,"REV_AT_EPOCH":953,"BSTAR":0.0012517381,"MEAN_MOTION_DOT":0.00034381,"MEAN_MOTION_DDOT":0}]
